start=new Date('2021-11-19T00:00:00.000Z').valueOf();
sats=[{"REV_AT_EPOCH":"2811","DECAY_DATE":null,"APOAPSIS":"548.343","GP_ID":"190040647","NORAD_CAT_ID":"48555","EPOCH":"2021-11-18T14:59:30.698304","COUNTRY_CODE":"US","MEAN_MOTION_DOT":"-0.00000048","FILE":"3218669","OBJECT_TYPE":"PAYLOAD","TIME_SYSTEM":"UTC","SITE":"AFETR","TLE_LINE2":"2 48555  53.0570 358.8932 0001579  63.2262 296.8889 15.06388305 28111","RCS_SIZE":"LARGE","CLASSIFICATION_TYPE":"U","PERIAPSIS":"546.156","MEAN_ANOMALY":"296.8889","MEAN_ELEMENT_THEORY":"SGP4","ELEMENT_SET_NO":"999","INCLINATION":"53.0570","OBJECT_ID":"2021-041C","TLE_LINE1":"1 48555U 21041C   21322.62466086 -.00000048  00000-0  15714-4 0  9998","PERIOD":"95.593","REF_FRAME":"TEME","SEMIMAJOR_AXIS":"6925.384","MEAN_MOTION":"15.06388305","RA_OF_ASC_NODE":"358.8932","ARG_OF_PERICENTER":"63.2262","EPHEMERIS_TYPE":"0","LAUNCH_DATE":"2021-05-15","CENTER_NAME":"EARTH","MEAN_MOTION_DDOT":"0.0000000000000","ECCENTRICITY":"0.00015790","OBJECT_NAME":"STARLINK-2145","BSTAR":"0.00001571400000"},{"OBJECT_ID":"2021-041D","INCLINATION":"53.0578","ELEMENT_SET_NO":"999","RA_OF_ASC_NODE":"358.9332","MEAN_MOTION":"15.06392460","SEMIMAJOR_AXIS":"6925.372","TLE_LINE1":"1 48556U 21041D   21322.61360031  .00000199  00000-0  32275-4 0  9998","PERIOD":"95.593","REF_FRAME":"TEME","EPHEMERIS_TYPE":"0","LAUNCH_DATE":"2021-05-15","ARG_OF_PERICENTER":"71.5506","BSTAR":"0.00003227500000","OBJECT_NAME":"STARLINK-2151","ECCENTRICITY":"0.00014950","MEAN_MOTION_DDOT":"0.0000000000000","CENTER_NAME":"EARTH","RCS_SIZE":"LARGE","TLE_LINE2":"2 48556  53.0578 358.9332 0001495  71.5506 288.5645 15.06392460 28110","CLASSIFICATION_TYPE":"U","PERIAPSIS":"546.201","MEAN_ANOMALY":"288.5645","MEAN_ELEMENT_THEORY":"SGP4","COUNTRY_CODE":"US","MEAN_MOTION_DOT":"0.00000199","OBJECT_TYPE":"PAYLOAD","FILE":"3218669","SITE":"AFETR","TIME_SYSTEM":"UTC","REV_AT_EPOCH":"2811","NORAD_CAT_ID":"48556","GP_ID":"190041021","DECAY_DATE":null,"APOAPSIS":"548.272","EPOCH":"2021-11-18T14:43:35.066784"},{"RCS_SIZE":"LARGE","TLE_LINE2":"2 48557  53.0548 349.2301 0001594  56.8661 303.2480 15.06393909 28240","CLASSIFICATION_TYPE":"U","PERIAPSIS":"546.128","MEAN_ANOMALY":"303.2480","MEAN_ELEMENT_THEORY":"SGP4","INCLINATION":"53.0548","OBJECT_ID":"2021-041E","ELEMENT_SET_NO":"999","RA_OF_ASC_NODE":"349.2301","MEAN_MOTION":"15.06393909","SEMIMAJOR_AXIS":"6925.367","REF_FRAME":"TEME","TLE_LINE1":"1 48557U 21041E   21322.55186225  .00000269  00000-0  36965-4 0  9991","PERIOD":"95.593","EPHEMERIS_TYPE":"0","LAUNCH_DATE":"2021-05-15","ARG_OF_PERICENTER":"56.8661","BSTAR":"0.00003696500000","ECCENTRICITY":"0.00015940","OBJECT_NAME":"STARLINK-2155","MEAN_MOTION_DDOT":"0.0000000000000","CENTER_NAME":"EARTH","REV_AT_EPOCH":"2824","NORAD_CAT_ID":"48557","GP_ID":"190040771","APOAPSIS":"548.336","DECAY_DATE":null,"EPOCH":"2021-11-18T13:14:40.898400","COUNTRY_CODE":"US","MEAN_MOTION_DOT":"0.00000269","OBJECT_TYPE":"PAYLOAD","FILE":"3218669","SITE":"AFETR","TIME_SYSTEM":"UTC"},{"REV_AT_EPOCH":"2738","GP_ID":"190040896","NORAD_CAT_ID":"48558","APOAPSIS":"548.260","DECAY_DATE":null,"EPOCH":"2021-11-18T13:09:22.363200","COUNTRY_CODE":"US","MEAN_MOTION_DOT":"0.00004420","FILE":"3218669","OBJECT_TYPE":"PAYLOAD","SITE":"AFETR","TIME_SYSTEM":"UTC","TLE_LINE2":"2 48558  53.0543 349.2423 0001527  64.9107 295.2041 15.06403618 27388","RCS_SIZE":"LARGE","CLASSIFICATION_TYPE":"U","MEAN_ANOMALY":"295.2041","PERIAPSIS":"546.145","MEAN_ELEMENT_THEORY":"SGP4","OBJECT_ID":"2021-041F","INCLINATION":"53.0543","ELEMENT_SET_NO":"999","RA_OF_ASC_NODE":"349.2423","MEAN_MOTION":"15.06403618","TLE_LINE1":"1 48558U 21041F   21322.54817550  .00004420  00000-0  31539-3 0  9997","REF_FRAME":"TEME","PERIOD":"95.592","SEMIMAJOR_AXIS":"6925.337","LAUNCH_DATE":"2021-05-15","EPHEMERIS_TYPE":"0","ARG_OF_PERICENTER":"64.9107","ECCENTRICITY":"0.00015270","OBJECT_NAME":"STARLINK-2166","BSTAR":"0.00031539000000","CENTER_NAME":"EARTH","MEAN_MOTION_DDOT":"0.0000000000000"},{"DECAY_DATE":null,"APOAPSIS":"548.263","GP_ID":"190040332","NORAD_CAT_ID":"48559","EPOCH":"2021-11-18T20:23:14.157024","REV_AT_EPOCH":"2828","FILE":"3218669","OBJECT_TYPE":"PAYLOAD","TIME_SYSTEM":"UTC","SITE":"AFETR","COUNTRY_CODE":"US","MEAN_MOTION_DOT":"-0.00000101","PERIAPSIS":"546.168","MEAN_ANOMALY":"292.5737","MEAN_ELEMENT_THEORY":"SGP4","TLE_LINE2":"2 48559  53.0533 347.8848 0001512  67.5412 292.5737 15.06399360 28285","RCS_SIZE":"LARGE","CLASSIFICATION_TYPE":"U","ARG_OF_PERICENTER":"67.5412","LAUNCH_DATE":"2021-05-15","EPHEMERIS_TYPE":"0","CENTER_NAME":"EARTH","MEAN_MOTION_DDOT":"0.0000000000000","OBJECT_NAME":"STARLINK-2167","ECCENTRICITY":"0.00015120","BSTAR":"0.00001214600000","ELEMENT_SET_NO":"999","OBJECT_ID":"2021-041G","INCLINATION":"53.0533","REF_FRAME":"TEME","TLE_LINE1":"1 48559U 21041G   21322.84946941 -.00000101  00000-0  12146-4 0  9995","PERIOD":"95.592","SEMIMAJOR_AXIS":"6925.351","RA_OF_ASC_NODE":"347.8848","MEAN_MOTION":"15.06399360"},{"TLE_LINE2":"2 48560  53.0491 347.5542 0001631  75.0038 285.1145 15.37023421 29174","RCS_SIZE":"LARGE","CLASSIFICATION_TYPE":"U","PERIAPSIS":"453.805","MEAN_ANOMALY":"285.1145","MEAN_ELEMENT_THEORY":"SGP4","OBJECT_ID":"2021-041H","INCLINATION":"53.0491","ELEMENT_SET_NO":"999","RA_OF_ASC_NODE":"347.5542","MEAN_MOTION":"15.37023421","TLE_LINE1":"1 48560U 21041H   21322.56665563  .00406231  00000-0  10481-1 0  9994","REF_FRAME":"TEME","PERIOD":"93.688","SEMIMAJOR_AXIS":"6833.054","EPHEMERIS_TYPE":"0","LAUNCH_DATE":"2021-05-15","ARG_OF_PERICENTER":"75.0038","ECCENTRICITY":"0.00016310","OBJECT_NAME":"STARLINK-2173","BSTAR":"0.01048100000000","CENTER_NAME":"EARTH","MEAN_MOTION_DDOT":"0.0000000000000","REV_AT_EPOCH":"2917","GP_ID":"190041203","NORAD_CAT_ID":"48560","DECAY_DATE":null,"APOAPSIS":"456.033","EPOCH":"2021-11-18T13:35:59.046432","COUNTRY_CODE":"US","MEAN_MOTION_DOT":"0.00406231","FILE":"3218669","OBJECT_TYPE":"PAYLOAD","SITE":"AFETR","TIME_SYSTEM":"UTC"},{"MEAN_ELEMENT_THEORY":"SGP4","PERIAPSIS":"545.616","MEAN_ANOMALY":"23.3126","CLASSIFICATION_TYPE":"U","TLE_LINE2":"2 48561  53.0547 317.5760 0002376  46.4162  23.3126 15.06384227  3615","RCS_SIZE":"LARGE","OBJECT_NAME":"STARLINK-2186","ECCENTRICITY":"0.00023760","BSTAR":"0.00119600000000","CENTER_NAME":"EARTH","MEAN_MOTION_DDOT":"0.0000000000000","LAUNCH_DATE":"2021-05-15","EPHEMERIS_TYPE":"0","ARG_OF_PERICENTER":"46.4162","MEAN_MOTION":"15.06384227","RA_OF_ASC_NODE":"317.5760","PERIOD":"95.593","TLE_LINE1":"1 48561U 21041J   21322.91667824  .00017570  00000-0  11960-2 0  9994","REF_FRAME":"TEME","SEMIMAJOR_AXIS":"6925.397","OBJECT_ID":"2021-041J","INCLINATION":"53.0547","ELEMENT_SET_NO":"999","EPOCH":"2021-11-18T22:00:00.999936","GP_ID":"190040457","NORAD_CAT_ID":"48561","DECAY_DATE":null,"APOAPSIS":"548.907","REV_AT_EPOCH":"361","SITE":"AFETR","TIME_SYSTEM":"UTC","FILE":"3218669","OBJECT_TYPE":"PAYLOAD","MEAN_MOTION_DOT":"0.00017570","COUNTRY_CODE":"US"},{"CLASSIFICATION_TYPE":"U","RCS_SIZE":"LARGE","TLE_LINE2":"2 48562  53.0564 348.1492 0001782  47.4618 312.6521 15.06389048 28283","MEAN_ELEMENT_THEORY":"SGP4","MEAN_ANOMALY":"312.6521","PERIAPSIS":"546.013","SEMIMAJOR_AXIS":"6925.382","TLE_LINE1":"1 48562U 21041K   21322.79145004 -.00000230  00000-0  34546-5 0  9996","REF_FRAME":"TEME","PERIOD":"95.593","RA_OF_ASC_NODE":"348.1492","MEAN_MOTION":"15.06389048","ELEMENT_SET_NO":"999","OBJECT_ID":"2021-041K","INCLINATION":"53.0564","MEAN_MOTION_DDOT":"0.0000000000000","CENTER_NAME":"EARTH","BSTAR":"0.00000345460000","ECCENTRICITY":"0.00017820","OBJECT_NAME":"STARLINK-2187","ARG_OF_PERICENTER":"47.4618","EPHEMERIS_TYPE":"0","LAUNCH_DATE":"2021-05-15","REV_AT_EPOCH":"2828","EPOCH":"2021-11-18T18:59:41.283456","APOAPSIS":"548.481","DECAY_DATE":null,"NORAD_CAT_ID":"48562","GP_ID":"190040582","MEAN_MOTION_DOT":"-0.00000230","COUNTRY_CODE":"US","TIME_SYSTEM":"UTC","SITE":"AFETR","OBJECT_TYPE":"PAYLOAD","FILE":"3218669"},{"MEAN_MOTION_DOT":"0.00001523","COUNTRY_CODE":"US","TIME_SYSTEM":"UTC","SITE":"AFETR","OBJECT_TYPE":"PAYLOAD","FILE":"3218669","REV_AT_EPOCH":"2824","EPOCH":"2021-11-18T13:04:03.080640","DECAY_DATE":null,"APOAPSIS":"548.248","NORAD_CAT_ID":"48563","GP_ID":"190040648","SEMIMAJOR_AXIS":"6925.349","TLE_LINE1":"1 48563U 21041L   21322.54448010  .00001523  00000-0  12113-3 0  9992","REF_FRAME":"TEME","PERIOD":"95.592","RA_OF_ASC_NODE":"349.2624","MEAN_MOTION":"15.06399984","ELEMENT_SET_NO":"999","INCLINATION":"53.0557","OBJECT_ID":"2021-041L","MEAN_MOTION_DDOT":"0.0000000000000","CENTER_NAME":"EARTH","BSTAR":"0.00012113000000","OBJECT_NAME":"STARLINK-2188","ECCENTRICITY":"0.00014930","ARG_OF_PERICENTER":"62.2128","EPHEMERIS_TYPE":"0","LAUNCH_DATE":"2021-05-15","CLASSIFICATION_TYPE":"U","RCS_SIZE":"LARGE","TLE_LINE2":"2 48563  53.0557 349.2624 0001493  62.2128 297.9012 15.06399984 28241","MEAN_ELEMENT_THEORY":"SGP4","MEAN_ANOMALY":"297.9012","PERIAPSIS":"546.180"},{"SITE":"AFETR","TIME_SYSTEM":"UTC","FILE":"3218669","OBJECT_TYPE":"PAYLOAD","MEAN_MOTION_DOT":"-0.00000590","COUNTRY_CODE":"US","EPOCH":"2021-11-18T19:15:36.757728","GP_ID":"190041022","NORAD_CAT_ID":"48564","DECAY_DATE":null,"APOAPSIS":"548.158","REV_AT_EPOCH":"2828","ECCENTRICITY":"0.00013090","OBJECT_NAME":"STARLINK-2190","BSTAR":"-0.00002071000000","CENTER_NAME":"EARTH","MEAN_MOTION_DDOT":"0.0000000000000","LAUNCH_DATE":"2021-05-15","EPHEMERIS_TYPE":"0","ARG_OF_PERICENTER":"63.0013","MEAN_MOTION":"15.06387556","RA_OF_ASC_NODE":"348.0988","TLE_LINE1":"1 48564U 21041M   21322.80250877 -.00000590  00000-0 -20710-4 0  9992","REF_FRAME":"TEME","PERIOD":"95.593","SEMIMAJOR_AXIS":"6925.387","INCLINATION":"53.0574","OBJECT_ID":"2021-041M","ELEMENT_SET_NO":"999","MEAN_ELEMENT_THEORY":"SGP4","MEAN_ANOMALY":"297.1110","PERIAPSIS":"546.345","CLASSIFICATION_TYPE":"U","TLE_LINE2":"2 48564  53.0574 348.0988 0001309  63.0013 297.1110 15.06387556 28286","RCS_SIZE":"LARGE"}];
